{"spkid": "20267337", "covariance": {"labels": ["e", "q", "tp", "node", "peri", "i", "A2"], "elements": [{"label": "e", "name": "e", "sigma": 1.33129125345221e-08, "title": "eccentricity", "value": ".5141320186842762", "units": null}, {"sigma": 1.70567980536549e-08, "name": "q", "title": "perihelion distance", "value": ".6166361287380395", "units": "au", "label": "q"}, {"label": "tp", "name": "tp", "sigma": 5.26755543848413e-06, "value": "2459462.336835057252", "title": "time of perihelion passage", "units": "TDB"}, {"sigma": 2.24209404647273e-06, "name": "om", "units": "deg", "value": "54.23613238881745", "title": "longitude of the ascending node", "label": "node"}, {"label": "peri", "units": "deg", "title": "argument of perihelion", "value": "263.9245833403339", "sigma": 2.11315647412755e-06, "name": "w"}, {"label": "i", "units": "deg", "value": "19.43086216965671", "title": "inclination", "sigma": 5.16316229518027e-07, "name": "i"}], "data": [["1.772336401518346E-16", "-2.266252780297678E-16", "4.321711280135219E-15", "1.665058682185711E-15", "-3.064882793541876E-15", "2.320737373515002E-15", "-3.392927404410018E-23"], ["-2.266252780297678E-16", "2.909343598431653E-16", "-1.000005484879529E-15", "-9.673744077311891E-16", "4.070503768823267E-15", "-2.827049945488964E-15", "4.970863740775184E-23"], ["4.321711280135219E-15", "-1.000005484879529E-15", "2.77471402975037E-11", "6.739698994524587E-12", "3.130749810989662E-12", "6.217654892028329E-13", "1.648662544187102E-20"], ["1.665058682185711E-15", "-9.673744077311891E-16", "6.739698994524587E-12", "5.026985713228467E-12", "-1.695123810570694E-12", "6.477654968518105E-13", "4.407498969845977E-21"], ["-3.064882793541876E-15", "4.070503768823267E-15", "3.130749810989662E-12", "-1.695123810570694E-12", "4.465430284147192E-12", "-3.804894269834743E-13", "2.642111487454535E-21"], ["2.320737373515002E-15", "-2.827049945488964E-15", "6.217654892028329E-13", "6.477654968518105E-13", "-3.804894269834743E-13", "2.665824488637118E-13", "1.658618120618123E-22"], ["-3.392927404410018E-23", "4.970863740775184E-23", "1.648662544187102E-20", "4.407498969845977E-21", "2.642111487454535E-21", "1.658618120618123E-22", "6.405420611518013E-29"]], "epoch": "2459212.5"}, "elements": [{"title": "eccentricity", "value": ".5141334169527231", "units": null, "name": "e", "sigma": "1.3247E-8", "label": "e"}, {"label": "a", "units": "au", "value": "1.269092260036263", "title": "semi-major axis", "name": "a", "sigma": "4.202E-9"}, {"label": "q", "units": "au", "value": ".6166095199555655", "title": "perihelion distance", "name": "q", "sigma": "1.7386E-8"}, {"name": "i", "sigma": "5.1627E-7", "value": "19.42915901184455", "title": "inclination; angle with respect to x-y ecliptic plane", "units": "deg", "label": "i"}, {"label": "node", "title": "longitude of the ascending node", "value": "54.20353127717621", "units": "deg", "sigma": "2.2428E-6", "name": "om"}, {"label": "peri", "sigma": "2.1127E-6", "name": "w", "value": "263.94000984753", "title": "argument of perihelion", "units": "deg"}, {"title": "mean anomaly", "value": "118.3799832367199", "units": "deg", "name": "ma", "sigma": "7.5713E-6", "label": "M"}, {"label": "tp", "name": "tp", "sigma": "1.022E-5", "units": "TDB", "title": "time of perihelion passage", "value": "2461028.782722866182"}, {"value": "522.2016263050064", "title": "sidereal orbital period", "units": "d", "sigma": "2.5935E-6", "name": "per", "label": "period"}, {"name": "n", "sigma": "3.4239E-9", "title": "mean motion", "value": ".68938889092952", "units": "deg/d", "label": "n"}, {"label": "Q", "name": "ad", "sigma": "6.3624E-9", "units": "au", "title": "aphelion distance", "value": "1.921575000116961"}], "epoch": "2461200.5"}